QIANFAN-41              
1 62242U 24232F   25329.06062293  .00000204  00000+0  29683-3 0  9994
2 62242  89.0040  42.9785 0012673 236.3153 123.6790 13.50979055 96867
QIANFAN-42              
1 62243U 24232G   25329.14098522  .00000706  00000+0  29837-3 0  9996
2 62243  89.0030  39.3650 0016810 137.1480 223.1026 14.24464163 98867
QIANFAN-43              
1 62244U 24232H   25329.13050708  .00000199  00000+0  28983-3 0  9997
2 62244  89.0044  43.0359 0014047 242.4853 117.4871 13.50979637 65485
QIANFAN-44              
1 62245U 24232J   25329.11824278  .00000195  00000+0  28361-3 0  9993
2 62245  89.0043  42.8483 0012338 238.5654 121.4291 13.50974309 96954
QIANFAN-45              
1 62246U 24232K   25329.08528519  .00000194  00000+0  28227-3 0  9999
2 62246  89.0046  42.9974 0013012 238.5781 121.4099 13.50978106 96871
QIANFAN-46              
1 62247U 24232L   25329.11000911  .00000179  00000+0  25953-3 0  9991
2 62247  89.0042  43.0647 0012931 244.6723 115.3090 13.50976252 96839
QIANFAN-47              
1 62248U 24232M   25329.11410984  .00000201  00000+0  29315-3 0  9999
2 62248  89.0038  42.9980 0013370 243.8489 116.1287 13.50978931 96867
QIANFAN-48              
1 62249U 24232N   25329.07707146  .00000195  00000+0  28366-3 0  9991
2 62249  89.0042  43.0028 0015570 247.5334 112.4168 13.50974010 96863
